{"type": "FeatureCollection", "features": [ {"type": "Feature", "properties": {"norad_id": 40118, "name": "GAOFEN-2", "group": "resource", "lat": 19.052881283672377, "lon": -118.60483024694967, "alt_km": 626.8051214655698, "timestamp": "2025-12-25T09:48:51.943388+00:00", "meta": {"OBJECT_NAME": "GAOFEN-2", "OBJECT_ID": "2014-049A", "EPOCH": "2025-12-25T04:13:34.921632", "MEAN_MOTION": 14.80627277, "ECCENTRICITY": 0.0008709, "INCLINATION": 98.0364, "RA_OF_ASC_NODE": 58.3652, "ARG_OF_PERICENTER": 78.6958, "MEAN_ANOMALY": 281.5232, "EPHEMERIS_TYPE": 0, "CLASSIFICATION_TYPE": "U", "NORAD_CAT_ID": 40118, "ELEMENT_SET_NO": 999, "REV_AT_EPOCH": 61348, "BSTAR": 4.3155e-05, "MEAN_MOTION_DOT": 2.78e-06, "MEAN_MOTION_DDOT": 0}, "tle": {"line1": "1 40118U 14049A   25359.17609863  .00000278  00000+0  43155-4 0  9994", "line2": "2 40118  98.0364  58.3652 0008709  78.6958 281.5232 14.80627277613481"}}, "geometry": {"type": "Point", "coordinates": [-118.60483024694967, 19.052881283672377]}}, {"type": "Feature", "properties": {"norad_id": 40143, "name": "YAOGAN-21", "group": "resource", "lat": -71.82616403590899, "lon": 64.73116695545687, "alt_km": 500.0282300410099, "timestamp": "2025-12-25T09:48:51.943398+00:00", "meta": {"OBJECT_NAME": "YAOGAN-21", "OBJECT_ID": "2014-053A", "EPOCH": "2025-12-25T05:24:25.308288", "MEAN_MOTION": 15.23796406, "ECCENTRICITY": 0.0008477, "INCLINATION": 97.1735, "RA_OF_ASC_NODE": 41.9948, "ARG_OF_PERICENTER": 0.568, "MEAN_ANOMALY": 359.5566, "EPHEMERIS_TYPE": 0, "CLASSIFICATION_TYPE": "U", "NORAD_CAT_ID": 40143, "ELEMENT_SET_NO": 999, "REV_AT_EPOCH": 62844, "BSTAR": 0.00017215, "MEAN_MOTION_DOT": 4.08e-05, "MEAN_MOTION_DDOT": 0}, "tle": {"line1": "1 40143U 14053A   25359.22529292  .00004080  00000+0  17215-3 0  9992", "line2": "2 40143  97.1735  41.9948 0008477   0.5680 359.5566 15.23796406628442"}}, "geometry": {"type": "Point", "coordinates": [64.73116695545687, -71.82616403590899]}}, {"type": "Feature", "properties": {"norad_id": 40275, "name": "YAOGAN-22", "group": "resource", "lat": 1.4656453533625577, "lon": 142.72918248771225, "alt_km": 1208.0917680378852, "timestamp": "2025-12-25T09:48:51.943409+00:00", "meta": {"OBJECT_NAME": "YAOGAN-22", "OBJECT_ID": "2014-063A", "EPOCH": "2025-12-25T00:40:50.428416", "MEAN_MOTION": 13.15523246, "ECCENTRICITY": 0.0006087, "INCLINATION": 100.743, "RA_OF_ASC_NODE": 142.6217, "ARG_OF_PERICENTER": 218.7981, "MEAN_ANOMALY": 141.2694, "EPHEMERIS_TYPE": 0, "CLASSIFICATION_TYPE": "U", "NORAD_CAT_ID": 40275, "ELEMENT_SET_NO": 999, "REV_AT_EPOCH": 53691, "BSTAR": 7.3351e-05, "MEAN_MOTION_DOT": -1.9e-07, "MEAN_MOTION_DDOT": 0}, "tle": {"line1": "1 40275U 14063A   25359.02836144 -.00000019  00000+0  73351-4 0  9997", "line2": "2 40275 100.7430 142.6217 0006087 218.7981 141.2694 13.15523246536918"}}, "geometry": {"type": "Point", "coordinates": [142.72918248771225, 1.4656453533625577]}}, {"type": "Feature", "properties": {"norad_id": 40298, "name": "ASNARO", "group": "resource", "lat": 32.09328331388092, "lon": -100.30205589950015, "alt_km": 502.76515463820397, "timestamp": "2025-12-25T09:48:51.943418+00:00", "meta": {"OBJECT_NAME": "ASNARO", "OBJECT_ID": "2014-070A", "EPOCH": "2025-12-25T04:25:38.546688", "MEAN_MOTION": 15.19748505, "ECCENTRICITY": 0.0005762, "INCLINATION": 97.3635, "RA_OF_ASC_NODE": 74.8271, "ARG_OF_PERICENTER": 89.0664, "MEAN_ANOMALY": 271.1231, "EPHEMERIS_TYPE": 0, "CLASSIFICATION_TYPE": "U", "NORAD_CAT_ID": 40298, "ELEMENT_SET_NO": 999, "REV_AT_EPOCH": 61758, "BSTAR": 0.0006397, "MEAN_MOTION_DOT": 0.00013631, "MEAN_MOTION_DDOT": 0}, "tle": {"line1": "1 40298U 14070A   25359.18447392  .00013631  00000+0  63970-3 0  9998", "line2": "2 40298  97.3635  74.8271 0005762  89.0664 271.1231 15.19748505617589"}}, "geometry": {"type": "Point", "coordinates": [-100.30205589950015, 32.09328331388092]}}, {"type": "Feature", "properties": {"norad_id": 40310, "name": "YAOGAN-24", "group": "resource", "lat": -56.64533812648408, "lon": 143.1026371225637, "alt_km": 658.2973443814544, "timestamp": "2025-12-25T09:48:51.943428+00:00", "meta": {"OBJECT_NAME": "YAOGAN-24", "OBJECT_ID": "2014-072A", "EPOCH": "2025-12-25T05:11:41.345664", "MEAN_MOTION": 14.76202562, "ECCENTRICITY": 0.0015223, "INCLINATION": 98.1233, "RA_OF_ASC_NODE": 130.3769, "ARG_OF_PERICENTER": 100.8502, "MEAN_ANOMALY": 259.4421, "EPHEMERIS_TYPE": 0, "CLASSIFICATION_TYPE": "U", "NORAD_CAT_ID": 40310, "ELEMENT_SET_NO": 999, "REV_AT_EPOCH": 59805, "BSTAR": 0.0001868, "MEAN_MOTION_DOT": 1.242e-05, "MEAN_MOTION_DDOT": 0}, "tle": {"line1": "1 40310U 14072A   25359.21645076  .00001242  00000+0  18680-3 0  9991", "line2": "2 40310  98.1233 130.3769 0015223 100.8502 259.4421 14.76202562598053"}}, "geometry": {"type": "Point", "coordinates": [143.1026371225637, -56.64533812648408]}}, {"type": "Feature", "properties": {"norad_id": 40336, "name": "CBERS 4", "group": "resource", "lat": -9.073789339055029, "lon": 58.33175460182018, "alt_km": 777.7864606853891, "timestamp": "2025-12-25T09:48:51.943438+00:00", "meta": {"OBJECT_NAME": "CBERS 4", "OBJECT_ID": "2014-079A", "EPOCH": "2025-12-25T04:50:18.786048", "MEAN_MOTION": 14.35522423, "ECCENTRICITY": 0.0001875, "INCLINATION": 98.3288, "RA_OF_ASC_NODE": 56.791, "ARG_OF_PERICENTER": 99.1391, "MEAN_ANOMALY": 261.0007, "EPHEMERIS_TYPE": 0, "CLASSIFICATION_TYPE": "U", "NORAD_CAT_ID": 40336, "ELEMENT_SET_NO": 999, "REV_AT_EPOCH": 57899, "BSTAR": 5.9583e-05, "MEAN_MOTION_DOT": 1.29e-06, "MEAN_MOTION_DDOT": 0}, "tle": {"line1": "1 40336U 14079A   25359.20160632  .00000129  00000+0  59583-4 0  9996", "line2": "2 40336  98.3288  56.7910 0001875  99.1391 261.0007 14.35522423578992"}}, "geometry": {"type": "Point", "coordinates": [58.33175460182018, -9.073789339055029]}}, {"type": "Feature", "properties": {"norad_id": 40362, "name": "YAOGAN-26", "group": "resource", "lat": -0.047105285954302675, "lon": -0.36048925660042647, "alt_km": 447.1038034815301, "timestamp": "2025-12-25T09:48:51.943449+00:00", "meta": {"OBJECT_NAME": "YAOGAN-26", "OBJECT_ID": "2014-088A", "EPOCH": "2025-12-25T05:08:07.744992", "MEAN_MOTION": 15.39743466, "ECCENTRICITY": 0.0004274, "INCLINATION": 97.0645, "RA_OF_ASC_NODE": 359.4455, "ARG_OF_PERICENTER": 349.52, "MEAN_ANOMALY": 10.5957, "EPHEMERIS_TYPE": 0, "CLASSIFICATION_TYPE": "U", "NORAD_CAT_ID": 40362, "ELEMENT_SET_NO": 999, "REV_AT_EPOCH": 61086, "BSTAR": 0.00074613, "MEAN_MOTION_DOT": 0.00029524, "MEAN_MOTION_DDOT": 0}, "tle": {"line1": "1 40362U 14088A   25359.21397853  .00029524  00000+0  74613-3 0  9993", "line2": "2 40362  97.0645 359.4455 0004274 349.5200  10.5957 15.39743466610869"}}, "geometry": {"type": "Point", "coordinates": [-0.36048925660042647, -0.047105285954302675]}}, {"type": "Feature", "properties": {"norad_id": 40376, "name": "SMAP", "group": "resource", "lat": 20.908313478819395, "lon": 0.8200382972536892, "alt_km": 681.9757860798945, "timestamp": "2025-12-25T09:48:51.943459+00:00", "meta": {"OBJECT_NAME": "SMAP", "OBJECT_ID": "2015-003A", "EPOCH": "2025-12-25T03:09:14.421024", "MEAN_MOTION": 14.63359898, "ECCENTRICITY": 0.0001234, "INCLINATION": 98.1291, "RA_OF_ASC_NODE": 3.6767, "ARG_OF_PERICENTER": 92.3549, "MEAN_ANOMALY": 267.7794, "EPHEMERIS_TYPE": 0, "CLASSIFICATION_TYPE": "U", "NORAD_CAT_ID": 40376, "ELEMENT_SET_NO": 999, "REV_AT_EPOCH": 58216, "BSTAR": 0.00011514, "MEAN_MOTION_DOT": 5.48e-06, "MEAN_MOTION_DDOT": 0}, "tle": {"line1": "1 40376U 15003A   25359.13141691  .00000548  00000+0  11514-3 0  9990", "line2": "2 40376  98.1291   3.6767 0001234  92.3549 267.7794 14.63359898582163"}}, "geometry": {"type": "Point", "coordinates": [0.8200382972536892, 20.908313478819395]}}, {"type": "Feature", "properties": {"norad_id": 40536, "name": "KOMPSAT-3A", "group": "resource", "lat": 26.4162005176367, "lon": 158.3035824939951, "alt_km": 430.0016638548723, "timestamp": "2025-12-25T09:48:51.943470+00:00", "meta": {"OBJECT_NAME": "KOMPSAT-3A", "OBJECT_ID": "2015-014A", "EPOCH": "2025-12-25T04:29:19.031712", "MEAN_MOTION": 15.44398068, "ECCENTRICITY": 0.0005625, "INCLINATION": 97.6807, "RA_OF_ASC_NODE": 334.2251, "ARG_OF_PERICENTER": 100.2619, "MEAN_ANOMALY": 259.9263, "EPHEMERIS_TYPE": 0, "CLASSIFICATION_TYPE": "U", "NORAD_CAT_ID": 40536, "ELEMENT_SET_NO": 999, "REV_AT_EPOCH": 59487, "BSTAR": 0.00044401, "MEAN_MOTION_DOT": 0.00020455, "MEAN_MOTION_DDOT": 0}, "tle": {"line1": "1 40536U 15014A   25359.18702583  .00020455  00000+0  44401-3 0  9998", "line2": "2 40536  97.6807 334.2251 0005625 100.2619 259.9263 15.44398068594871"}}, "geometry": {"type": "Point", "coordinates": [158.3035824939951, 26.4162005176367]}}, {"type": "Feature", "properties": {"norad_id": 40697, "name": "SENTINEL-2A", "group": "resource", "lat": -27.671113455906628, "lon": -112.7727226769397, "alt_km": 795.1229117158546, "timestamp": "2025-12-25T09:48:51.943480+00:00", "meta": {"OBJECT_NAME": "SENTINEL-2A", "OBJECT_ID": "2015-028A", "EPOCH": "2025-12-25T05:29:21.047712", "MEAN_MOTION": 14.30810366, "ECCENTRICITY": 0.0001051, "INCLINATION": 98.5728, "RA_OF_ASC_NODE": 71.5864, "ARG_OF_PERICENTER": 90.5296, "MEAN_ANOMALY": 269.6007, "EPHEMERIS_TYPE": 0, "CLASSIFICATION_TYPE": "U", "NORAD_CAT_ID": 40697, "ELEMENT_SET_NO": 999, "REV_AT_EPOCH": 54885, "BSTAR": 5.5127e-05, "MEAN_MOTION_DOT": 1.01e-06, "MEAN_MOTION_DDOT": 0}, "tle": {"line1": "1 40697U 15028A   25359.22871583  .00000101  00000+0  55127-4 0  9997", "line2": "2 40697  98.5728  71.5864 0001051  90.5296 269.6007 14.30810366548858"}}, "geometry": {"type": "Point", "coordinates": [-112.7727226769397, -27.671113455906628]}}]}